STARLINK-4345           
1 53049U 22077G   26008.24094207 -.00006832  00000+0 -52744-3 0  9998
2 53049  97.6021 191.0499 0002766  47.4929 312.6529 15.01292661191841
STARLINK-4343           
1 53050U 22077H   26008.06358762  .00000908  00000+0  67105-4 0  9993
2 53050  97.6032 191.4328 0001594  84.4774 275.6634 15.05650093191854
STARLINK-4336           
1 53051U 22077J   26008.04841624  .00002030  00000+0  16256-3 0  9994
2 53051  97.6027 190.8379 0002219  72.0269 288.1197 15.01262740191818
STARLINK-4341           
1 53052U 22077K   26008.24465939  .00000512  00000+0  44365-4 0  9994
2 53052  97.6024 191.0481 0002587  60.8341 299.3142 15.01261003191845
STARLINK-4337           
1 53053U 22077L   26008.23725273  .00000401  00000+0  35791-4 0  9994
2 53053  97.6023 191.0409 0002950  46.5158 313.6311 15.01262511191849
STARLINK-4339           
1 53054U 22077M   26008.22697395  .00001557  00000+0  11208-3 0  9996
2 53054  97.6033 191.6683 0001797  74.9393 285.2032 15.05650629191888
STARLINK-4338           
1 53055U 22077N   26008.25742028  .00001461  00000+0  10549-3 0  9995
2 53055  97.6022 191.6106 0001023  97.7683 262.3660 15.05637809191882
STARLINK-4314           
1 53056U 22077P   26008.24358270  .00000536  00000+0  41359-4 0  9993
2 53056  97.6034 191.6365 0001684  80.9524 279.1893 15.05647213191888
STARLINK-4252           
1 53057U 22077Q   26008.06913496  .00000604  00000+0  46089-4 0  9992
2 53057  97.6031 191.5436 0001470  82.5767 277.5627 15.05649313191862
STARLINK-4317           
1 53058U 22077R   26008.25045674  .00001652  00000+0  13315-3 0  9997
2 53058  97.6033 191.0175 0001589  83.1618 276.9787 15.01259395191855
STARLINK-4320           
1 53059U 22077S   26008.22823889  .00000092  00000+0  11731-4 0  9995
2 53059  97.6017 191.0277 0000558  58.3759 301.7520 15.01260078191847
STARLINK-4305           
1 53060U 22077T   26008.23355125  .00000603  00000+0  51520-4 0  9999
2 53060  97.6022 191.0364 0002780  59.0234 301.1263 15.01260844191846
STARLINK-4308           
1 53061U 22077U   26008.22614096 -.00000180  00000+0 -95024-5 0  9994
2 53061  97.6009 191.0216 0001884  61.3305 298.8108 15.01266027191846
STARLINK-4311           
1 53062U 22077V   26008.22985033  .00000413  00000+0  36716-4 0  9996
2 53062  97.6023 191.0317 0003683  50.7997 309.3554 15.01261181191842
STARLINK-4307           
1 53063U 22077W   26008.21866089 -.00001835  00000+0 -12302-3 0  9990
2 53063  97.6031 191.5610 0001811  84.0603 276.0830 15.05636101 63463
STARLINK-4313           
1 53064U 22077X   26008.22973543  .00000595  00000+0  45431-4 0  9996
2 53064  97.6030 191.6308 0001695  85.8849 274.2572 15.05649174191884
