[{"OBJECT_NAME":"STARLINK-4345","OBJECT_ID":"2022-077G","EPOCH":"2026-01-08T05:46:57.394848","MEAN_MOTION":15.01292661,"ECCENTRICITY":0.00027667,"INCLINATION":97.6021,"RA_OF_ASC_NODE":191.0499,"ARG_OF_PERICENTER":47.4929,"MEAN_ANOMALY":312.6529,"EPHEMERIS_TYPE":0,"CLASSIFICATION_TYPE":"U","NORAD_CAT_ID":53049,"ELEMENT_SET_NO":999,"REV_AT_EPOCH":19184,"BSTAR":-0.0005274375,"MEAN_MOTION_DOT":-6.832e-5,"MEAN_MOTION_DDOT":0},{"OBJECT_NAME":"STARLINK-4343","OBJECT_ID":"2022-077H","EPOCH":"2026-01-08T01:31:33.970368","MEAN_MOTION":15.05650093,"ECCENTRICITY":0.00015942,"INCLINATION":97.6032,"RA_OF_ASC_NODE":191.4328,"ARG_OF_PERICENTER":84.4774,"MEAN_ANOMALY":275.6634,"EPHEMERIS_TYPE":0,"CLASSIFICATION_TYPE":"U","NORAD_CAT_ID":53050,"ELEMENT_SET_NO":999,"REV_AT_EPOCH":19185,"BSTAR":6.7104986e-5,"MEAN_MOTION_DOT":9.08e-6,"MEAN_MOTION_DDOT":0},{"OBJECT_NAME":"STARLINK-4336","OBJECT_ID":"2022-077J","EPOCH":"2026-01-08T01:09:43.163136","MEAN_MOTION":15.0126274,"ECCENTRICITY":0.00022199,"INCLINATION":97.6027,"RA_OF_ASC_NODE":190.8379,"ARG_OF_PERICENTER":72.0269,"MEAN_ANOMALY":288.1197,"EPHEMERIS_TYPE":0,"CLASSIFICATION_TYPE":"U","NORAD_CAT_ID":53051,"ELEMENT_SET_NO":999,"REV_AT_EPOCH":19181,"BSTAR":0.00016256385,"MEAN_MOTION_DOT":2.03e-5,"MEAN_MOTION_DDOT":0},{"OBJECT_NAME":"STARLINK-4341","OBJECT_ID":"2022-077K","EPOCH":"2026-01-08T05:52:18.571296","MEAN_MOTION":15.01261003,"ECCENTRICITY":0.00025876,"INCLINATION":97.6024,"RA_OF_ASC_NODE":191.0481,"ARG_OF_PERICENTER":60.8341,"MEAN_ANOMALY":299.3142,"EPHEMERIS_TYPE":0,"CLASSIFICATION_TYPE":"U","NORAD_CAT_ID":53052,"ELEMENT_SET_NO":999,"REV_AT_EPOCH":19184,"BSTAR":4.4365093e-5,"MEAN_MOTION_DOT":5.12e-6,"MEAN_MOTION_DDOT":0},{"OBJECT_NAME":"STARLINK-4337","OBJECT_ID":"2022-077L","EPOCH":"2026-01-08T05:41:38.635872","MEAN_MOTION":15.01262511,"ECCENTRICITY":0.00029501,"INCLINATION":97.6023,"RA_OF_ASC_NODE":191.0409,"ARG_OF_PERICENTER":46.5158,"MEAN_ANOMALY":313.6311,"EPHEMERIS_TYPE":0,"CLASSIFICATION_TYPE":"U","NORAD_CAT_ID":53053,"ELEMENT_SET_NO":999,"REV_AT_EPOCH":19184,"BSTAR":3.579098e-5,"MEAN_MOTION_DOT":4.01e-6,"MEAN_MOTION_DDOT":0},{"OBJECT_NAME":"STARLINK-4339","OBJECT_ID":"2022-077M","EPOCH":"2026-01-08T05:26:50.549280","MEAN_MOTION":15.05650629,"ECCENTRICITY":0.00017971,"INCLINATION":97.6033,"RA_OF_ASC_NODE":191.6683,"ARG_OF_PERICENTER":74.9393,"MEAN_ANOMALY":285.2032,"EPHEMERIS_TYPE":0,"CLASSIFICATION_TYPE":"U","NORAD_CAT_ID":53054,"ELEMENT_SET_NO":999,"REV_AT_EPOCH":19188,"BSTAR":0.00011208125,"MEAN_MOTION_DOT":1.557e-5,"MEAN_MOTION_DDOT":0},{"OBJECT_NAME":"STARLINK-4338","OBJECT_ID":"2022-077N","EPOCH":"2026-01-08T06:10:41.112192","MEAN_MOTION":15.05637809,"ECCENTRICITY":0.00010237,"INCLINATION":97.6022,"RA_OF_ASC_NODE":191.6106,"ARG_OF_PERICENTER":97.7683,"MEAN_ANOMALY":262.366,"EPHEMERIS_TYPE":0,"CLASSIFICATION_TYPE":"U","NORAD_CAT_ID":53055,"ELEMENT_SET_NO":999,"REV_AT_EPOCH":19188,"BSTAR":0.00010549053,"MEAN_MOTION_DOT":1.461e-5,"MEAN_MOTION_DDOT":0},{"OBJECT_NAME":"STARLINK-4314","OBJECT_ID":"2022-077P","EPOCH":"2026-01-08T05:50:45.545280","MEAN_MOTION":15.05647213,"ECCENTRICITY":0.00016849,"INCLINATION":97.6034,"RA_OF_ASC_NODE":191.6365,"ARG_OF_PERICENTER":80.9524,"MEAN_ANOMALY":279.1893,"EPHEMERIS_TYPE":0,"CLASSIFICATION_TYPE":"U","NORAD_CAT_ID":53056,"ELEMENT_SET_NO":999,"REV_AT_EPOCH":19188,"BSTAR":4.1358592e-5,"MEAN_MOTION_DOT":5.36e-6,"MEAN_MOTION_DDOT":0},{"OBJECT_NAME":"STARLINK-4252","OBJECT_ID":"2022-077Q","EPOCH":"2026-01-08T01:39:33.260544","MEAN_MOTION":15.05649313,"ECCENTRICITY":0.00014701,"INCLINATION":97.6031,"RA_OF_ASC_NODE":191.5436,"ARG_OF_PERICENTER":82.5767,"MEAN_ANOMALY":277.5627,"EPHEMERIS_TYPE":0,"CLASSIFICATION_TYPE":"U","NORAD_CAT_ID":53057,"ELEMENT_SET_NO":999,"REV_AT_EPOCH":19186,"BSTAR":4.6089004e-5,"MEAN_MOTION_DOT":6.04e-6,"MEAN_MOTION_DDOT":0},{"OBJECT_NAME":"STARLINK-4317","OBJECT_ID":"2022-077R","EPOCH":"2026-01-08T06:00:39.462336","MEAN_MOTION":15.01259395,"ECCENTRICITY":0.00015897,"INCLINATION":97.6033,"RA_OF_ASC_NODE":191.0175,"ARG_OF_PERICENTER":83.1618,"MEAN_ANOMALY":276.9787,"EPHEMERIS_TYPE":0,"CLASSIFICATION_TYPE":"U","NORAD_CAT_ID":53058,"ELEMENT_SET_NO":999,"REV_AT_EPOCH":19185,"BSTAR":0.00013314567,"MEAN_MOTION_DOT":1.652e-5,"MEAN_MOTION_DDOT":0},{"OBJECT_NAME":"STARLINK-4320","OBJECT_ID":"2022-077S","EPOCH":"2026-01-08T05:28:39.840096","MEAN_MOTION":15.01260078,"ECCENTRICITY":5.588e-5,"INCLINATION":97.6017,"RA_OF_ASC_NODE":191.0277,"ARG_OF_PERICENTER":58.3759,"MEAN_ANOMALY":301.752,"EPHEMERIS_TYPE":0,"CLASSIFICATION_TYPE":"U","NORAD_CAT_ID":53059,"ELEMENT_SET_NO":999,"REV_AT_EPOCH":19184,"BSTAR":1.173144e-5,"MEAN_MOTION_DOT":9.2e-7,"MEAN_MOTION_DDOT":0},{"OBJECT_NAME":"STARLINK-4305","OBJECT_ID":"2022-077T","EPOCH":"2026-01-08T05:36:18.828000","MEAN_MOTION":15.01260844,"ECCENTRICITY":0.00027805,"INCLINATION":97.6022,"RA_OF_ASC_NODE":191.0364,"ARG_OF_PERICENTER":59.0234,"MEAN_ANOMALY":301.1263,"EPHEMERIS_TYPE":0,"CLASSIFICATION_TYPE":"U","NORAD_CAT_ID":53060,"ELEMENT_SET_NO":999,"REV_AT_EPOCH":19184,"BSTAR":5.1519709e-5,"MEAN_MOTION_DOT":6.03e-6,"MEAN_MOTION_DDOT":0},{"OBJECT_NAME":"STARLINK-4308","OBJECT_ID":"2022-077U","EPOCH":"2026-01-08T05:25:38.578944","MEAN_MOTION":15.01266027,"ECCENTRICITY":0.00018844,"INCLINATION":97.6009,"RA_OF_ASC_NODE":191.0216,"ARG_OF_PERICENTER":61.3305,"MEAN_ANOMALY":298.8108,"EPHEMERIS_TYPE":0,"CLASSIFICATION_TYPE":"U","NORAD_CAT_ID":53061,"ELEMENT_SET_NO":999,"REV_AT_EPOCH":19184,"BSTAR":-9.502402e-6,"MEAN_MOTION_DOT":-1.8e-6,"MEAN_MOTION_DDOT":0},{"OBJECT_NAME":"STARLINK-4311","OBJECT_ID":"2022-077V","EPOCH":"2026-01-08T05:30:59.068512","MEAN_MOTION":15.01261181,"ECCENTRICITY":0.00036832,"INCLINATION":97.6023,"RA_OF_ASC_NODE":191.0317,"ARG_OF_PERICENTER":50.7997,"MEAN_ANOMALY":309.3554,"EPHEMERIS_TYPE":0,"CLASSIFICATION_TYPE":"U","NORAD_CAT_ID":53062,"ELEMENT_SET_NO":999,"REV_AT_EPOCH":19184,"BSTAR":3.6715795e-5,"MEAN_MOTION_DOT":4.13e-6,"MEAN_MOTION_DDOT":0},{"OBJECT_NAME":"STARLINK-4307","OBJECT_ID":"2022-077W","EPOCH":"2026-01-08T05:14:52.300896","MEAN_MOTION":15.05636101,"ECCENTRICITY":0.00018119,"INCLINATION":97.6031,"RA_OF_ASC_NODE":191.561,"ARG_OF_PERICENTER":84.0603,"MEAN_ANOMALY":276.083,"EPHEMERIS_TYPE":0,"CLASSIFICATION_TYPE":"U","NORAD_CAT_ID":53063,"ELEMENT_SET_NO":999,"REV_AT_EPOCH":6346,"BSTAR":-0.00012301697,"MEAN_MOTION_DOT":-1.835e-5,"MEAN_MOTION_DDOT":0},{"OBJECT_NAME":"STARLINK-4313","OBJECT_ID":"2022-077X","EPOCH":"2026-01-08T05:30:49.141152","MEAN_MOTION":15.05649174,"ECCENTRICITY":0.00016959,"INCLINATION":97.603,"RA_OF_ASC_NODE":191.6308,"ARG_OF_PERICENTER":85.8849,"MEAN_ANOMALY":274.2572,"EPHEMERIS_TYPE":0,"CLASSIFICATION_TYPE":"U","NORAD_CAT_ID":53064,"ELEMENT_SET_NO":999,"REV_AT_EPOCH":19188,"BSTAR":4.5431474e-5,"MEAN_MOTION_DOT":5.95e-6,"MEAN_MOTION_DDOT":0}]
